[{"OBJECT_NAME":"STARLINK-5121","OBJECT_ID":"2022-125AF","EPOCH":"2026-03-09T16:09:29.793600","MEAN_MOTION":15.08836447,"ECCENTRICITY":0.00011001,"INCLINATION":53.217,"RA_OF_ASC_NODE":208.9467,"ARG_OF_PERICENTER":78.3884,"MEAN_ANOMALY":281.7232,"EPHEMERIS_TYPE":0,"CLASSIFICATION_TYPE":"U","NORAD_CAT_ID":53993,"ELEMENT_SET_NO":999,"REV_AT_EPOCH":18952,"BSTAR":-3.0030007e-5,"MEAN_MOTION_DOT":-7.66e-6,"MEAN_MOTION_DDOT":0},{"OBJECT_NAME":"H-2A R\/B","OBJECT_ID":"2025-141B","EPOCH":"2026-03-09T20:50:08.593728","MEAN_MOTION":14.90469893,"ECCENTRICITY":0.00923902,"INCLINATION":98.076,"RA_OF_ASC_NODE":17.3096,"ARG_OF_PERICENTER":151.0716,"MEAN_ANOMALY":209.5668,"EPHEMERIS_TYPE":0,"CLASSIFICATION_TYPE":"U","NORAD_CAT_ID":64695,"ELEMENT_SET_NO":999,"REV_AT_EPOCH":3783,"BSTAR":0.00033350933,"MEAN_MOTION_DOT":3.464e-5,"MEAN_MOTION_DDOT":0}]
